{"type": "FeatureCollection", "features": [ {"type": "Feature", "properties": {"norad_id": 66659, "name": "JACK K", "group": "last-30-days", "lat": 38.208313186145205, "lon": 90.10677379659016, "alt_km": 595.4920871259292, "timestamp": "2025-12-02T13:52:16.066762+00:00", "meta": {"OBJECT_NAME": "JACK K", "OBJECT_ID": "2025-274K", "EPOCH": "2025-12-01T17:56:02.625504", "MEAN_MOTION": 14.9270196, "ECCENTRICITY": 0.00126261, "INCLINATION": 97.7374, "RA_OF_ASC_NODE": 263.1465, "ARG_OF_PERICENTER": 321.0842, "MEAN_ANOMALY": 38.9468, "EPHEMERIS_TYPE": 0, "CLASSIFICATION_TYPE": "U", "NORAD_CAT_ID": 66659, "ELEMENT_SET_NO": 999, "REV_AT_EPOCH": 76, "BSTAR": 0.00036747917, "MEAN_MOTION_DOT": 3.74e-05, "MEAN_MOTION_DDOT": 0}, "tle": {"line1": "1 66659U 25274K   25335.74725261  .00003740  00000+0  36748-3 0  9998", "line2": "2 66659  97.7374 263.1465 0012626 321.0842  38.9468 14.92701960   765"}}, "geometry": {"type": "Point", "coordinates": [90.10677379659016, 38.208313186145205]}}, {"type": "Feature", "properties": {"norad_id": 66660, "name": "K-HERO", "group": "last-30-days", "lat": 35.087366330210294, "lon": 89.44575816741342, "alt_km": 595.9134737182703, "timestamp": "2025-12-02T13:52:16.066774+00:00", "meta": {"OBJECT_NAME": "K-HERO", "OBJECT_ID": "2025-274L", "EPOCH": "2025-12-01T17:55:18.874272", "MEAN_MOTION": 14.9285317, "ECCENTRICITY": 0.00132505, "INCLINATION": 97.7378, "RA_OF_ASC_NODE": 263.1475, "ARG_OF_PERICENTER": 321.6444, "MEAN_ANOMALY": 38.3832, "EPHEMERIS_TYPE": 0, "CLASSIFICATION_TYPE": "U", "NORAD_CAT_ID": 66660, "ELEMENT_SET_NO": 999, "REV_AT_EPOCH": 76, "BSTAR": 0.00040358481, "MEAN_MOTION_DOT": 4.13e-05, "MEAN_MOTION_DDOT": 0}, "tle": {"line1": "1 66660U 25274L   25335.74674623  .00004130  00000+0  40358-3 0  9991", "line2": "2 66660  97.7378 263.1475 0013250 321.6444  38.3832 14.92853170   760"}}, "geometry": {"type": "Point", "coordinates": [89.44575816741342, 35.087366330210294]}}, {"type": "Feature", "properties": {"norad_id": 66661, "name": "SNUGLITE-III", "group": "last-30-days", "lat": 31.842153486427367, "lon": 88.80970179118431, "alt_km": 596.387740967356, "timestamp": "2025-12-02T13:52:16.066784+00:00", "meta": {"OBJECT_NAME": "SNUGLITE-III", "OBJECT_ID": "2025-274M", "EPOCH": "2025-12-01T17:54:33.114240", "MEAN_MOTION": 14.93004804, "ECCENTRICITY": 0.00139389, "INCLINATION": 97.7376, "RA_OF_ASC_NODE": 263.1479, "ARG_OF_PERICENTER": 322.3156, "MEAN_ANOMALY": 37.7086, "EPHEMERIS_TYPE": 0, "CLASSIFICATION_TYPE": "U", "NORAD_CAT_ID": 66661, "ELEMENT_SET_NO": 999, "REV_AT_EPOCH": 76, "BSTAR": 0.00031192666, "MEAN_MOTION_DOT": 3.192e-05, "MEAN_MOTION_DDOT": 0}, "tle": {"line1": "1 66661U 25274M   25335.74621660  .00003192  00000+0  31193-3 0  9999", "line2": "2 66661  97.7376 263.1479 0013938 322.3156  37.7086 14.93004804   761"}}, "geometry": {"type": "Point", "coordinates": [88.80970179118431, 31.842153486427367]}}, {"type": "Feature", "properties": {"norad_id": 66662, "name": "2025-274N", "group": "last-30-days", "lat": 30.399959523561236, "lon": 88.54204572190143, "alt_km": 596.5926810535175, "timestamp": "2025-12-02T13:52:16.066794+00:00", "meta": {"OBJECT_NAME": "2025-274N", "OBJECT_ID": "2025-274N", "EPOCH": "2025-12-02T05:09:44.751456", "MEAN_MOTION": 14.93073383, "ECCENTRICITY": 0.00142805, "INCLINATION": 97.7379, "RA_OF_ASC_NODE": 263.6096, "ARG_OF_PERICENTER": 320.098, "MEAN_ANOMALY": 39.9189, "EPHEMERIS_TYPE": 0, "CLASSIFICATION_TYPE": "U", "NORAD_CAT_ID": 66662, "ELEMENT_SET_NO": 999, "REV_AT_EPOCH": 83, "BSTAR": 0.00027446603, "MEAN_MOTION_DOT": 2.807e-05, "MEAN_MOTION_DDOT": 0}, "tle": {"line1": "1 66662U 25274N   25336.21510129  .00002807  00000+0  27447-3 0  9999", "line2": "2 66662  97.7379 263.6096 0014280 320.0980  39.9189 14.93073383   830"}}, "geometry": {"type": "Point", "coordinates": [88.54204572190143, 30.399959523561236]}}, {"type": "Feature", "properties": {"norad_id": 66663, "name": "KSLV-II R/B", "group": "last-30-days", "lat": -59.80270422607797, "lon": 70.50184401007634, "alt_km": 593.9425875409324, "timestamp": "2025-12-02T13:52:16.066804+00:00", "meta": {"OBJECT_NAME": "KSLV-II R/B", "OBJECT_ID": "2025-274P", "EPOCH": "2025-12-01T19:09:11.937312", "MEAN_MOTION": 14.97208303, "ECCENTRICITY": 0.00442329, "INCLINATION": 97.7405, "RA_OF_ASC_NODE": 263.2462, "ARG_OF_PERICENTER": 354.9322, "MEAN_ANOMALY": 5.1446, "EPHEMERIS_TYPE": 0, "CLASSIFICATION_TYPE": "U", "NORAD_CAT_ID": 66663, "ELEMENT_SET_NO": 999, "REV_AT_EPOCH": 77, "BSTAR": -0.00030154003, "MEAN_MOTION_DOT": -3.618e-05, "MEAN_MOTION_DDOT": 0}, "tle": {"line1": "1 66663U 25274P   25335.79805483 -.00003618  00000+0 -30154-3 0  9994", "line2": "2 66663  97.7405 263.2462 0044232 354.9322   5.1446 14.97208303   770"}}, "geometry": {"type": "Point", "coordinates": [70.50184401007634, -59.80270422607797]}}, {"type": "Feature", "properties": {"norad_id": 66664, "name": "SOYUZ-MS 28", "group": "last-30-days", "lat": -8.538242254612385, "lon": 19.616500705338083, "alt_km": 418.2452572232005, "timestamp": "2025-12-02T13:52:16.066817+00:00", "meta": {"OBJECT_NAME": "SOYUZ-MS 28", "OBJECT_ID": "2025-275A", "EPOCH": "2025-12-02T02:12:50.598720", "MEAN_MOTION": 15.49237019, "ECCENTRICITY": 0.00036389, "INCLINATION": 51.6314, "RA_OF_ASC_NODE": 195.1903, "ARG_OF_PERICENTER": 193.8265, "MEAN_ANOMALY": 166.2625, "EPHEMERIS_TYPE": 0, "CLASSIFICATION_TYPE": "U", "NORAD_CAT_ID": 66664, "ELEMENT_SET_NO": 999, "REV_AT_EPOCH": 79, "BSTAR": 0.00017380747, "MEAN_MOTION_DOT": 9.217e-05, "MEAN_MOTION_DDOT": 0}, "tle": {"line1": "1 66664U 25275A   25336.09225230  .00009217  00000+0  17381-3 0  9992", "line2": "2 66664  51.6314 195.1903 0003638 193.8265 166.2625 15.49237019   797"}}, "geometry": {"type": "Point", "coordinates": [19.616500705338083, -8.538242254612385]}}]}